{
    "links": {
        "self": "http://www.neowsapp.com/rest/v1/neo/3309856?api_key=iIulBulltgU6a56xZRHN4H3l9WmuAYTsLGpBGhQ2"
    },
    "id": "3309856",
    "neo_reference_id": "3309856",
    "name": "(2005 YT128)",
    "designation": "2005 YT128",
    "nasa_jpl_url": "http://ssd.jpl.nasa.gov/sbdb.cgi?sstr=3309856",
    "absolute_magnitude_h": 20.8,
    "estimated_diameter": {
        "kilometers": {
            "estimated_diameter_min": 0.1838886721,
            "estimated_diameter_max": 0.411187571
        },
        "meters": {
            "estimated_diameter_min": 183.8886720703,
            "estimated_diameter_max": 411.1875710413
        },
        "miles": {
            "estimated_diameter_min": 0.1142630881,
            "estimated_diameter_max": 0.2555000322
        },
        "feet": {
            "estimated_diameter_min": 603.309310875,
            "estimated_diameter_max": 1349.040630575
        }
    },
    "is_potentially_hazardous_asteroid": false,
    "close_approach_data": [
        {
            "close_approach_date": "2005-12-24",
            "close_approach_date_full": "2005-Dec-24 23:03",
            "epoch_date_close_approach": 1135465380000,
            "relative_velocity": {
                "kilometers_per_second": "14.7390292165",
                "kilometers_per_hour": "53060.5051794835",
                "miles_per_hour": "32969.7344544407"
            },
            "miss_distance": {
                "astronomical": "0.3559289754",
                "lunar": "138.4563714306",
                "kilometers": "53246216.591122398",
                "miles": "33085664.7870611724"
            },
            "orbiting_body": "Earth"
        }
    ],
    "orbital_data": {
        "orbit_id": "14",
        "orbit_determination_date": "2017-04-06 09:09:32",
        "first_observation_date": "2005-12-30",
        "last_observation_date": "2006-02-07",
        "data_arc_in_days": 39,
        "observations_used": 60,
        "orbit_uncertainty": "6",
        "minimum_orbit_intersection": ".319626",
        "jupiter_tisserand_invariant": "3.025",
        "epoch_osculation": "2459000.5",
        "eccentricity": ".5713544512694795",
        "semi_major_axis": "2.613774508830031",
        "inclination": "27.23844857851272",
        "ascending_node_longitude": "294.0261614782086",
        "orbital_period": "1543.478570193574",
        "perihelion_distance": "1.120382808595296",
        "perihelion_argument": "115.2434965889072",
        "aphelion_distance": "4.107166209064767",
        "perihelion_time": "2458309.313572442215",
        "mean_anomaly": "161.2119006547632",
        "mean_motion": ".2332393898768876",
        "equinox": "J2000",
        "orbit_class": {
            "orbit_class_type": "AMO",
            "orbit_class_description": "Near-Earth asteroid orbits similar to that of 1221 Amor",
            "orbit_class_range": "1.017 AU < q (perihelion) < 1.3 AU"
        }
    },
    "is_sentry_object": false
}